{"type":"FeatureCollection", "features": [
{"type":"Feature","geometry":{"type":"Polygon","coordinates":[[[8.08724299276997,9.2307390655555],[8.10768865680609,9.22896877708746],[8.13042262240617,9.21540313714513],[8.14983775870564,9.22867303143528],[8.17260644892855,9.22261851663131],[8.18647729089429,9.23855284044129],[8.24704297225543,9.23935015688426],[8.27053084941923,9.26732311856711],[8.26692492324668,9.28028956990778],[8.29655989142589,9.28570528457129],[8.34721104005752,9.32647185958871],[8.36730968179643,9.35216284463962],[8.41277985140908,9.3693769972507],[8.44121021008317,9.41594733809922],[8.44768971660716,9.43424748593276],[8.47295326198349,9.444648196657],[8.48099283235337,9.45922995270018],[8.50501485375253,9.47395704008539],[8.51594699905479,9.4934053011138],[8.5550308426993,9.49270743529996],[8.57775093985401,9.49924086787178],[8.55628585830578,9.55365753276897],[8.55567634188969,9.58156780810793],[8.52168220057314,9.57228639180357],[8.4986958564287,9.57558438471165],[8.4541343177446,9.53262776086251],[8.41345505610599,9.54992305390584],[8.35126579178291,9.54273591493057],[8.34176107831115,9.56823195663952],[8.32371470117255,9.58444225090921],[8.31179944578787,9.61236500793882],[8.28689993158662,9.59986625442417],[8.28140038931656,9.57217518613601],[8.24509839967146,9.55881036030991],[8.24478675040825,9.53160936318159],[8.22708083411328,9.50499334626596],[8.20724627829316,9.51104938811881],[8.17482138379989,9.53320741439069],[8.16480785459885,9.55106167925317],[8.14582628055842,9.53446835922745],[8.1593002562019,9.52456627581302],[8.15180248239869,9.50683628916346],[8.12179547098424,9.50206616092464],[8.10870695825957,9.49350790926263],[8.06983081843759,9.4954494052659],[8.07620199802386,9.4582242291649],[8.10474168368182,9.44772387715528],[8.09316700515319,9.42878782769611],[8.06298883116966,9.41148196402145],[8.04499500681413,9.39353729121308],[8.05676871700274,9.37814806268301],[8.0432543294238,9.35740849930284],[8.02101568162846,9.3429449303643],[8.00833277573707,9.32312682674171],[7.94057187589141,9.31417523589846],[8.06093389558288,9.26576207805749],[8.08724299276997,9.2307390655555]]]},"properties":{"globalid":"f1565a21-4f8f-4681-a3cf-25472530528e","uniq_id":28189,"timestamp":"Fri, 09 Aug 2019 00:00:00 GMT","editor":"nuraddeen.isah","lganame":"Jema'A","lgacode":"19007","statename":"Kaduna","statecode":"KD","source":"eHA_Polio","amapcode":"NIE KDS KAF"},"id":105},
{"type":"Feature","geometry":{"type":"Polygon","coordinates":[[[7.62473744038061,11.2163365655801],[7.65230071680469,11.2214700226235],[7.6580129514366,11.2073205922716],[7.69620817226939,11.2127481995698],[7.70330528910785,11.1941940939823],[7.72148315342486,11.2049915882912],[7.71423993272674,11.2364031599779],[7.74606092886881,11.2447787953052],[7.75656714265955,11.2198633046478],[7.75619303637956,11.1986808539383],[7.78976017779001,11.1614948936744],[7.81260459002988,11.1534674011996],[7.83604949398898,11.1609165972232],[7.84392259085496,11.1719380586945],[7.84126978597192,11.1993447964252],[7.81288997998865,11.2032108658888],[7.80912507076545,11.228265692108],[7.8141084363553,11.2902446148971],[7.87648047529376,11.2819163540565],[7.85313329706406,11.321213443146],[7.84400104771021,11.3165796899008],[7.80551980739324,11.3716957008959],[7.78899654455495,11.3598801119776],[7.76480423472771,11.3792833115756],[7.74158681877674,11.368297199756],[7.72099480716469,11.3701726792258],[7.71326700207055,11.3483916100848],[7.72107750612207,11.3249470289823],[7.70617606267518,11.3100415601699],[7.67604135382544,11.3065378185655],[7.66883003837563,11.2969097298002],[7.61866756155877,11.277690311159],[7.62316894359191,11.2629433316695],[7.61896141863463,11.2284790877397],[7.62473744038061,11.2163365655801]]]},"properties":{"globalid":"9772a843-1b44-446b-9bf6-b8eb803b9389","uniq_id":28199,"timestamp":"Fri, 09 Aug 2019 00:00:00 GMT","editor":"nuraddeen.isah","lganame":"Kudan","lgacode":"19016","statename":"Kaduna","statecode":"KD","source":"eHA_Polio","amapcode":"NIE KDS HKY"},"id":116},
{"type":"Feature","geometry":{"type":"Polygon","coordinates":[[[7.25137295090099,9.52103349599906],[7.2899797716492,9.51413178385479],[7.30016464957896,9.52722810629211],[7.30873371378993,9.57285573820178],[7.34348575426418,9.58253308283554],[7.37500029562722,9.5793046731722],[7.43372630222711,9.59327119311115],[7.44798437877608,9.61620356893962],[7.48253937419281,9.60536641812575],[7.51217792617041,9.58710078537297],[7.52970948370574,9.60228148899955],[7.55668312142893,9.57929001422281],[7.5679253358856,9.57729056860489],[7.61208575175607,9.59534427701681],[7.62026089582372,9.60840297361841],[7.64800114533665,9.62712453297087],[7.6920066745684,9.6174219209849],[7.71237365332149,9.6036175011468],[7.73425278723641,9.60923639064697],[7.74780142099883,9.63560432957621],[7.74864015212137,9.67651191019655],[7.76950821243412,9.6795015390648],[7.80081928308351,9.65222732003485],[7.81579214708995,9.64789954043147],[7.83652286923507,9.69160198914051],[7.86727648971828,9.69340910844363],[7.86559287071447,9.67766318630703],[7.90042154062166,9.67427204162146],[7.9206094742479,9.6372296428338],[7.94785084284217,9.63493376088439],[7.98852722575094,9.59453909060659],[8.00468735313888,9.58908721600227],[8.01752009957301,9.57179337356541],[8.04869509470291,9.57234282965788],[8.07911160521644,9.58190807469794],[8.09276726459763,9.5955399631988],[8.09575389242826,9.61931281933118],[8.11665477439834,9.62498052942794],[8.13338770697715,9.66888912703166],[8.11562923340244,9.68043283290893],[8.1012737449874,9.70549254694356],[8.07082115906928,9.73268205343408],[8.07864008167445,9.75747771842202],[8.0676964439358,9.77159971765292],[8.02692248458504,9.780092200095],[8.02283106480184,9.80162434408828],[8.05555130744693,9.83071086971091],[8.05723665674634,9.84218300124456],[8.0869968753056,9.86109981330577],[8.08990754100029,9.88644984558397],[8.08076698820599,9.9041211757517],[8.05980624466252,9.9158471751071],[8.06029206112976,9.93357955215464],[8.04226594841481,9.94918301268592],[8.01084335103985,9.94940381513402],[8.02762745324441,10.0131317592234],[8.02802025193313,10.0400088808053],[7.98429121386846,10.0769066164472],[7.99711509478584,10.0935080546531],[7.99851095411731,10.1180815430288],[7.97376346131472,10.117874212425],[7.95187483955226,10.1312368412073],[7.93953382532584,10.1060510017524],[7.90275930130076,10.0826902959205],[7.89458311761683,10.0673389387411],[7.84633598901473,10.0708831588308],[7.82033320901041,10.0687951866486],[7.79799007708044,10.0517996250527],[7.80584775956652,10.0180510157418],[7.79160441481196,10.0037850080717],[7.7663800708836,9.9956698631737],[7.74807530143408,9.9780375815692],[7.73607068221628,10.0124327377807],[7.70919718670086,10.0220768030021],[7.690560248157,10.0048340105812],[7.65555536059145,10.0170699920865],[7.62731776530268,10.0167417988949],[7.63730719357216,10.0384550834354],[7.61868715958479,10.094967350363],[7.59834165214556,10.1002050298383],[7.55601396287415,10.1724131464496],[7.51055232333113,10.1946841005908],[7.44511013922158,10.1840755052804],[7.42979007575144,10.1595970077957],[7.40849416387459,10.139376816387],[7.39961748925577,10.1106316644198],[7.37192767282392,10.0822682989429],[7.3586634478599,10.079738818092],[7.33496475162201,10.0602588649547],[7.30049228698948,10.0577239989634],[7.28850221610446,10.0405378341538],[7.27340173740032,10.046627998983],[7.25406694383446,10.0392265326784],[7.27779531500181,10.0164327621623],[7.28536558225585,9.93315982776392],[7.29377698901686,9.90792560568218],[7.29650020631954,9.8698482508961],[7.2887301447804,9.8406333929168],[7.29293584771125,9.81119346700495],[7.28536558225585,9.78932380744783],[7.27358961117164,9.7834358219057],[7.25171995161452,9.79437065078497],[7.21050405461847,9.78007125938115],[7.20474004691567,9.75829601335039],[7.25601961391408,9.71262655936829],[7.27636499904554,9.68994817366934],[7.305647140703,9.62771532280397],[7.29613995229698,9.61346763342459],[7.25887177061577,9.58909519298879],[7.233942260427,9.5648211878476],[7.25137295090099,9.52103349599906]]]},"properties":{"globalid":"04aa19ce-3126-4286-930a-21212810c5ad","uniq_id":28196,"timestamp":"Fri, 09 Aug 2019 00:00:00 GMT","editor":"nuraddeen.isah","lganame":"Kachia","lgacode":"19008","statename":"Kaduna","statecode":"KD","source":"eHA_Polio","amapcode":"NIE KDS KCH"},"id":117},
{"type":"Feature","geometry":{"type":"Polygon","coordinates":[[[7.91908663424084,9.31736555117931],[7.94057187589141,9.31417523589846],[8.00833277573707,9.32312682674171],[8.02101568162846,9.3429449303643],[8.0432543294238,9.35740849930284],[8.05676871700274,9.37814806268301],[8.04499500681413,9.39353729121308],[8.06298883116966,9.41148196402145],[8.09316700515319,9.42878782769611],[8.10474168368182,9.44772387715528],[8.07620199802386,9.4582242291649],[8.06983081843759,9.4954494052659],[8.10870695825957,9.49350790926263],[8.12179547098424,9.50206616092464],[8.15180248239869,9.50683628916346],[8.1593002562019,9.52456627581302],[8.14582628055842,9.53446835922745],[8.16480785459885,9.55106167925317],[8.17175325940542,9.56580194080698],[8.14987452029294,9.5971466011348],[8.11665477439834,9.62498052942794],[8.09575389242826,9.61931281933118],[8.09276726459763,9.5955399631988],[8.07911160521644,9.58190807469794],[8.04869509470291,9.57234282965788],[8.01752009957301,9.57179337356541],[8.00468735313888,9.58908721600227],[7.98852722575094,9.59453909060659],[7.94785084284217,9.63493376088439],[7.92746417972813,9.61465501371794],[7.9286793265897,9.56743348726565],[7.94432342028966,9.55993680434011],[7.93264549599292,9.53972620959695],[7.9418097962851,9.50823962455905],[7.95300350940448,9.5022850828903],[7.9556296197112,9.46079475687259],[7.94734736279059,9.44498554944357],[7.95930290870234,9.39756577104356],[7.90653714457363,9.32974925172664],[7.91908663424084,9.31736555117931]]]},"properties":{"globalid":"e2dc6ddb-3914-4f88-9b83-4cb0da371d88","uniq_id":28200,"timestamp":"Fri, 09 Aug 2019 00:00:00 GMT","editor":"nuraddeen.isah","lganame":"Jaba","lgacode":"19006","statename":"Kaduna","statecode":"KD","source":"eHA_Polio","amapcode":"NIE KDS KWB"},"id":120},
{"type":"Feature","geometry":{"type":"Polygon","coordinates":[[[8.6796438308981,10.0110515212108],[8.67226833971216,10.0817368463784],[8.67203065968727,10.1462234594451],[8.68607277933535,10.2112304121538],[8.72868399966688,10.2482804021189],[8.73427706603383,10.2751032783937],[8.76342326886879,10.2813691167914],[8.79927487893258,10.3029212257341],[8.80509477860119,10.355613826417],[8.81831842885248,10.3804462475963],[8.79301574138339,10.4042350612991],[8.78225701235129,10.4241601401784],[8.74921953025716,10.4406980008121],[8.75284608687747,10.4545579807663],[8.77674933481399,10.4794686042927],[8.77305003023474,10.5044621120369],[8.79308021378091,10.5654626084127],[8.78317676789356,10.5969687051417],[8.76037548534043,10.5818644079162],[8.74972743227522,10.5650420377599],[8.7111282449726,10.5433585117859],[8.66643426043282,10.5933027627124],[8.6495617000125,10.6240655086164],[8.59364653975604,10.6450654356214],[8.54372870101878,10.6317787959547],[8.50633035236393,10.6504570826283],[8.48123426075256,10.7158618963095],[8.44689082724994,10.732125292848],[8.41413888260342,10.7365802581724],[8.39064070370557,10.7276314723147],[8.36948742430525,10.706945733359],[8.37089843181724,10.6736967999674],[8.34100482491277,10.6610766181914],[8.3343723050379,10.6263579497596],[8.35655525871829,10.6130059914334],[8.34604343855392,10.5996698611752],[8.37002629627659,10.5429268138215],[8.39573305903349,10.5116921738548],[8.39205848940782,10.4941043574302],[8.41216678357023,10.4854783634358],[8.42179766562981,10.4682291966202],[8.41621836068884,10.4442038099579],[8.42167188105253,10.4354465473203],[8.40710914656989,10.4030673069107],[8.39129948498328,10.3937620576729],[8.36302052357837,10.3939390046814],[8.33045208829327,10.3538796709101],[8.33420447715497,10.3393248864344],[8.31985022440836,10.2968896814137],[8.32798770217079,10.2460442792201],[8.35305433558915,10.2660361534458],[8.37943669244947,10.2957455027528],[8.39588993767052,10.2944226009224],[8.40423794312665,10.2542167001407],[8.41891291659789,10.2338787901741],[8.42428995142018,10.2092452585619],[8.41533661679148,10.188561097017],[8.43952993206074,10.1760665073635],[8.43887849374755,10.1523108561611],[8.48624243773838,10.1307546040418],[8.50090140057921,10.0921728438017],[8.47665835190145,10.0795150541765],[8.46634073583635,10.0530783602782],[8.45128554968841,10.0449285752936],[8.45527474623259,10.0177928518587],[8.43428441409446,9.99801654962414],[8.43423817904875,9.99397275883581],[8.45629973504481,9.98394296899289],[8.47610886972859,9.99572920673756],[8.49404353488126,10.0217659397464],[8.5146453509023,10.0182017214323],[8.53845138842087,10.0323319521579],[8.57533569898339,10.0215167546945],[8.61072467890085,10.0012462552106],[8.64011219142452,10.0150401997454],[8.6796438308981,10.0110515212108]]]},"properties":{"globalid":"d6c720e8-4201-43fb-b7c7-e6da6c422fd5","uniq_id":28207,"timestamp":"Fri, 09 Aug 2019 00:00:00 GMT","editor":"nuraddeen.isah","lganame":"Lere","lgacode":"19017","statename":"Kaduna","statecode":"KD","source":"eHA_Polio","amapcode":"NIE KDS SNK"},"id":130},
{"type":"Feature","geometry":{"type":"Polygon","coordinates":[[[7.3780200221064,10.4901430119905],[7.39865801065872,10.4678090000853],[7.4048037787714,10.4352739332455],[7.43232967757262,10.4444519086287],[7.44077132223879,10.4879961504021],[7.4185204202812,10.5021917681356],[7.42613657993928,10.5229968489255],[7.42044999936803,10.5555414368878],[7.41183903664228,10.5604615297758],[7.40549972273408,10.5337288492071],[7.3780200221064,10.4901430119905]]]},"properties":{"globalid":"c3ae04ce-317a-4558-8d04-ca898ab070a3","uniq_id":28214,"timestamp":"Fri, 09 Aug 2019 00:00:00 GMT","editor":"nuraddeen.isah","lganame":"Kaduna South","lgacode":"19010","statename":"Kaduna","statecode":"KD","source":"eHA_Polio","amapcode":"NIE KDS MKA"},"id":139},
{"type":"Feature","geometry":{"type":"Polygon","coordinates":[[[7.79187999676446,10.9226047041439],[7.81745242958601,10.9606593375584],[7.80885909177374,10.9805801383628],[7.81452800156609,10.9990635059761],[7.79951977891471,11.0107396720982],[7.80630486517742,11.0288199248997],[7.82017727556087,11.0353450513331],[7.81624121006382,11.0659278150167],[7.7995347499288,11.1044914862931],[7.78807319082517,11.1067245730806],[7.7726839757849,11.1369563511547],[7.7487498010625,11.1326896544041],[7.74937917810661,11.0902259390759],[7.71961562935786,11.0942266451436],[7.68905031162262,11.1105957695792],[7.674472385792,11.1268669056832],[7.66190178094246,11.1203834088673],[7.64565319443943,11.1307553835542],[7.63812136510899,11.0917074111682],[7.61404198944632,11.0858671994118],[7.60555027232726,11.0706732667579],[7.54469134812729,11.0588583559284],[7.51353153625143,11.0613776186822],[7.49543228167448,11.029941999124],[7.50558946767984,11.0195795365664],[7.52310972703231,10.9705961410991],[7.5718408563705,11.0027072927074],[7.59688807522451,11.006667481619],[7.6255208218285,10.9966411505687],[7.63057431025624,10.9768454562529],[7.65280512315798,10.9733682581386],[7.66839707416568,10.9998649296228],[7.71051554515634,10.9869329160213],[7.7301403188207,10.9619564711143],[7.7599299838817,10.9703211014377],[7.76487898187958,10.9435246580366],[7.77825962498173,10.9210610277443],[7.79187999676446,10.9226047041439]]]},"properties":{"globalid":"7147fb6e-4d18-4b5f-a26d-967080841aa5","uniq_id":28215,"timestamp":"Fri, 09 Aug 2019 00:00:00 GMT","editor":"nuraddeen.isah","lganame":"Zaria","lgacode":"19023","statename":"Kaduna","statecode":"KD","source":"eHA_Polio","amapcode":"NIE KDS ZAR"},"id":141},
{"type":"Feature","geometry":{"type":"Polygon","coordinates":[[[8.31179944578787,9.61236500793882],[8.32371470117255,9.58444225090921],[8.34176107831115,9.56823195663952],[8.35126579178291,9.54273591493057],[8.41345505610599,9.54992305390584],[8.4541343177446,9.53262776086251],[8.4986958564287,9.57558438471165],[8.52168220057314,9.57228639180357],[8.55567634188969,9.58156780810793],[8.56586360931817,9.59655380221625],[8.56561637489585,9.62431496006741],[8.58162262738239,9.67581846814784],[8.59902645420755,9.67872672815605],[8.59886006883715,9.7279239976944],[8.58217493432579,9.72393972044182],[8.5614681944017,9.74402541643985],[8.51548433923091,9.73315724081408],[8.50107810656942,9.74089815172835],[8.48640214204528,9.6918072890752],[8.43026517299938,9.69461601481726],[8.39158935176721,9.70935772427958],[8.37868509933793,9.72652620482057],[8.36506170673243,9.70778256171587],[8.36801889255787,9.67923251676729],[8.35841314025424,9.66539444160026],[8.32816534255659,9.64482549130344],[8.31179944578787,9.61236500793882]]]},"properties":{"globalid":"ea9e5fab-55a3-40a8-bbfa-7db6afdc97d4","uniq_id":28219,"timestamp":"Fri, 09 Aug 2019 00:00:00 GMT","editor":"nuraddeen.isah","lganame":"Kaura","lgacode":"19013","statename":"Kaduna","statecode":"KD","source":"eHA_Polio","amapcode":"NIE KDS KRA"},"id":144},
{"type":"Feature","geometry":{"type":"Polygon","coordinates":[[[8.16480785459885,9.55106167925317],[8.17482138379989,9.53320741439069],[8.20724627829316,9.51104938811881],[8.22708083411328,9.50499334626596],[8.24478675040825,9.53160936318159],[8.24509839967146,9.55881036030991],[8.28140038931656,9.57217518613601],[8.28689993158662,9.59986625442417],[8.31179944578787,9.61236500793882],[8.32816534255659,9.64482549130344],[8.35841314025424,9.66539444160026],[8.36801889255787,9.67923251676729],[8.36506170673243,9.70778256171587],[8.37868509933793,9.72652620482057],[8.39158935176721,9.70935772427958],[8.43026517299938,9.69461601481726],[8.48640214204528,9.6918072890752],[8.50107810656942,9.74089815172835],[8.48465049472458,9.76406354010032],[8.50455641444699,9.79313731963163],[8.51389629118097,9.82991551378996],[8.50962054185459,9.86508182336752],[8.48314379035367,9.86845012527311],[8.47357608566784,9.88055700370279],[8.44348889519642,9.87781927583893],[8.42019889226509,9.91801559884084],[8.42201992138229,9.93733501399976],[8.43574108558266,9.96539540057734],[8.43423817904875,9.99397275883581],[8.43428441409446,9.99801654962414],[8.41603190065172,10.0073154253666],[8.39991881500134,10.0024826953202],[8.35819807907814,10.0290810927183],[8.33491117161333,10.016729740785],[8.31986815958794,10.0288154545696],[8.28447758966905,10.0262979589837],[8.265954683362,10.0313743873182],[8.27163315384701,10.0547531344496],[8.2462565214214,10.0630217954196],[8.23843145914458,10.0902879403362],[8.22111062355646,10.104036243378],[8.24005847661743,10.1194605238841],[8.20295559122758,10.1470035934411],[8.20622543985223,10.1678277803279],[8.1718442123406,10.1999046147063],[8.19387521027278,10.218518908321],[8.16427853162895,10.230530179824],[8.14455874009383,10.2502708149462],[8.14446078503727,10.2820390163876],[8.11709297805857,10.2884775183228],[8.11414592129728,10.2671094601336],[8.12760999630433,10.2490413032136],[8.09251807055256,10.2223983659919],[8.06482016471887,10.2388676802993],[8.08288889001034,10.2610616380842],[8.0709628994183,10.2860537302955],[8.03903279932427,10.2828709333469],[8.01728817790712,10.2440247391505],[8.02311378827073,10.2319067163219],[7.99227155039176,10.1949976231418],[7.99030546242722,10.17853429742],[8.0054094601785,10.1707668645992],[7.99561345090007,10.1496526283661],[7.9760091592953,10.1524989277833],[7.95187483955226,10.1312368412073],[7.97376346131472,10.117874212425],[7.99851095411731,10.1180815430288],[7.99711509478584,10.0935080546531],[7.98429121386846,10.0769066164472],[8.02802025193313,10.0400088808053],[8.02762745324441,10.0131317592234],[8.01084335103985,9.94940381513402],[8.04226594841481,9.94918301268592],[8.06029206112976,9.93357955215464],[8.05980624466252,9.9158471751071],[8.08076698820599,9.9041211757517],[8.08990754100029,9.88644984558397],[8.0869968753056,9.86109981330577],[8.05723665674634,9.84218300124456],[8.05555130744693,9.83071086971091],[8.02283106480184,9.80162434408828],[8.02692248458504,9.780092200095],[8.0676964439358,9.77159971765292],[8.07864008167445,9.75747771842202],[8.07082115906928,9.73268205343408],[8.1012737449874,9.70549254694356],[8.11562923340244,9.68043283290893],[8.13338770697715,9.66888912703166],[8.11665477439834,9.62498052942794],[8.14987452029294,9.5971466011348],[8.17175325940542,9.56580194080698],[8.16480785459885,9.55106167925317]]]},"properties":{"globalid":"68baef0a-7d65-4454-9864-bc1942bff987","uniq_id":28341,"timestamp":"Fri, 09 Aug 2019 00:00:00 GMT","editor":"nuraddeen.isah","lganame":"Zangon Kataf","lgacode":"19022","statename":"Kaduna","statecode":"KD","source":"eHA_Polio","amapcode":"NIE KDS ZKW"},"id":286},
{"type":"Feature","geometry":{"type":"Polygon","coordinates":[[[7.51055232333113,10.1946841005908],[7.55601396287415,10.1724131464496],[7.59834165214556,10.1002050298383],[7.61868715958479,10.094967350363],[7.63730719357216,10.0384550834354],[7.62731776530268,10.0167417988949],[7.65555536059145,10.0170699920865],[7.690560248157,10.0048340105812],[7.70919718670086,10.0220768030021],[7.73607068221628,10.0124327377807],[7.74807530143408,9.9780375815692],[7.7663800708836,9.9956698631737],[7.79160441481196,10.0037850080717],[7.80584775956652,10.0180510157418],[7.79799007708044,10.0517996250527],[7.82033320901041,10.0687951866486],[7.84633598901473,10.0708831588308],[7.89458311761683,10.0673389387411],[7.90275930130076,10.0826902959205],[7.93953382532584,10.1060510017524],[7.95187483955226,10.1312368412073],[7.9760091592953,10.1524989277833],[7.99561345090007,10.1496526283661],[8.0054094601785,10.1707668645992],[7.99030546242722,10.17853429742],[7.99227155039176,10.1949976231418],[8.02311378827073,10.2319067163219],[8.01728817790712,10.2440247391505],[8.03903279932427,10.2828709333469],[8.0709628994183,10.2860537302955],[8.08288889001034,10.2610616380842],[8.06482016471887,10.2388676802993],[8.09251807055256,10.2223983659919],[8.12760999630433,10.2490413032136],[8.11414592129728,10.2671094601336],[8.11709297805857,10.2884775183228],[8.09769075512429,10.3122973676295],[8.07723838394429,10.3055331627253],[8.05935088463565,10.3178345564197],[8.03271449357908,10.302035070662],[8.03937374400311,10.3431566656477],[8.02341863775996,10.3933711475605],[8.00830988619236,10.4100694589384],[8.00022679043406,10.4496740712015],[8.01135844583564,10.4750806762323],[7.97674362661712,10.4791093799939],[7.94886175456639,10.476960888834],[7.93165793066902,10.4661569778623],[7.92099201077275,10.4789114302184],[7.89800694006829,10.4886956242037],[7.88746558526861,10.5143182329002],[7.86968182815389,10.5267066899618],[7.85334279863127,10.525178463915],[7.85215440030538,10.5080024542499],[7.82920360096546,10.4978910005693],[7.81691838967197,10.5076401012097],[7.79893506040474,10.4898963738186],[7.7781743485674,10.499838596674],[7.75630703534148,10.4946584477293],[7.72965081513308,10.4775227771545],[7.71465626577407,10.4634696731869],[7.70789771670633,10.4400358389829],[7.69128193970982,10.4318397191278],[7.66417211225325,10.3986921744044],[7.62490976757175,10.3891818635522],[7.59645869841023,10.3947020191829],[7.60661292384742,10.3465557441523],[7.6041446706401,10.3090627301609],[7.58961008044093,10.3083817787961],[7.57783278915196,10.2813548562416],[7.55785892115233,10.2899104216287],[7.53819676986507,10.2750229068817],[7.51655597967476,10.2312224689418],[7.51055232333113,10.1946841005908]]]},"properties":{"globalid":"bdd29263-45ad-45f0-9240-e2dcde5bae45","uniq_id":28351,"timestamp":"Fri, 09 Aug 2019 00:00:00 GMT","editor":"nuraddeen.isah","lganame":"Kajuru","lgacode":"19012","statename":"Kaduna","statecode":"KD","source":"eHA_Polio","amapcode":"NIE KDS KJR"},"id":297},
{"type":"Feature","geometry":{"type":"Polygon","coordinates":[[[8.08724299276997,9.2307390655555],[8.07079760402627,9.15464819166078],[8.0616469347583,9.05205520178617],[8.09906714683143,9.03967470372464],[8.13757126320326,9.03615377068002],[8.19189542473413,9.05243075327667],[8.23277633865717,9.10481629483621],[8.25350201110899,9.14724483588054],[8.25840775441441,9.18289193831237],[8.30086314202043,9.18850805430333],[8.32826385879008,9.18112561495519],[8.34563750166939,9.19390817382322],[8.38731193509778,9.17571735387281],[8.39551258124067,9.16195106528949],[8.44660854265015,9.11261749270318],[8.47391891532573,9.07297325091486],[8.47656154617846,9.05535411829794],[8.49065780591309,9.03773498478176],[8.50434589394791,9.00143146538989],[8.53326129926961,9.00437736472367],[8.56401238816125,9.03267914912351],[8.56402301814779,9.0522460936823],[8.5936315552521,9.09056653881476],[8.62071514139069,9.11488437691253],[8.64980497471987,9.17311875472677],[8.6578073500292,9.20768928593185],[8.69415092522507,9.32232761362849],[8.69071388184022,9.35499286812643],[8.69541263628417,9.37836742441715],[8.66952514576889,9.3965234756779],[8.64837455714013,9.39558410592178],[8.61766147629612,9.43476104738448],[8.60265977462893,9.48254971239936],[8.57775093985401,9.49924086787178],[8.5550308426993,9.49270743529996],[8.51594699905479,9.4934053011138],[8.50501485375253,9.47395704008539],[8.48099283235337,9.45922995270018],[8.47295326198349,9.444648196657],[8.44768971660716,9.43424748593276],[8.44121021008317,9.41594733809922],[8.41277985140908,9.3693769972507],[8.36730968179643,9.35216284463962],[8.34721104005752,9.32647185958871],[8.29655989142589,9.28570528457129],[8.26692492324668,9.28028956990778],[8.27053084941923,9.26732311856711],[8.24704297225543,9.23935015688426],[8.18647729089429,9.23855284044129],[8.17260644892855,9.22261851663131],[8.14983775870564,9.22867303143528],[8.13042262240617,9.21540313714513],[8.10768865680609,9.22896877708746],[8.08724299276997,9.2307390655555]]]},"properties":{"globalid":"6281c7bb-98e5-4154-830a-51ad55bdbe4e","uniq_id":28367,"timestamp":"Fri, 09 Aug 2019 00:00:00 GMT","editor":"nuraddeen.isah","lganame":"Sanga","lgacode":"19020","statename":"Kaduna","statecode":"KD","source":"eHA_Polio","amapcode":"NIE KDS GWT"},"id":312},
{"type":"Feature","geometry":{"type":"Polygon","coordinates":[[[8.41621836068884,10.4442038099579],[8.42179766562981,10.4682291966202],[8.41216678357023,10.4854783634358],[8.39205848940782,10.4941043574302],[8.39573305903349,10.5116921738548],[8.37002629627659,10.5429268138215],[8.34604343855392,10.5996698611752],[8.35655525871829,10.6130059914334],[8.3343723050379,10.6263579497596],[8.34100482491277,10.6610766181914],[8.37089843181724,10.6736967999674],[8.36948742430525,10.706945733359],[8.39064070370557,10.7276314723147],[8.41413888260342,10.7365802581724],[8.44689082724994,10.732125292848],[8.48123426075256,10.7158618963095],[8.50142972799961,10.7257839779483],[8.5393789941453,10.7334427591761],[8.57163702662751,10.7482723881602],[8.57294718776257,10.7736535963364],[8.56284457621626,10.7783147618168],[8.56305436916386,10.8164514340864],[8.58504332289107,10.8614875558061],[8.58374100564293,10.8879816624238],[8.57149410187134,10.9219102863307],[8.5812797545571,10.9420499803224],[8.598995209961,11.0020599373163],[8.61475942610667,11.0177399751198],[8.60731212765262,11.0712412183076],[8.59463929057085,11.0825156302922],[8.51963207725862,11.1149074270362],[8.50604733481669,11.1322356163806],[8.47888583861061,11.1133660232234],[8.44541554519128,11.115371290153],[8.42266817429686,11.1057343826357],[8.4085110574394,11.1102423459076],[8.40166369492363,11.153873988294],[8.35686317039904,11.1718572501121],[8.34697359115836,11.1666058982436],[8.31946751521372,11.1847363179268],[8.30219473040256,11.1617090753136],[8.310732759909,11.1273871284133],[8.28871939678277,11.1053769353973],[8.25645617791031,11.099807562569],[8.22531139460523,11.105278989334],[8.21316732381297,11.1403462331921],[8.16707577842448,11.1247315913899],[8.15791569415398,11.1155026532249],[8.16605950404295,11.0802420928983],[8.17707616942971,11.0717410246286],[8.19741528898447,11.0322606635988],[8.21428450842336,11.0266288499415],[8.23420619326129,10.972785322085],[8.24934400911877,10.95204061818],[8.25027485420122,10.9366339580907],[8.23192699733312,10.9135931150303],[8.18317071935326,10.896002995442],[8.15813199189796,10.8415769856894],[8.15661996174191,10.8084555213053],[8.14494576423567,10.7966186139579],[8.12660398768395,10.8089588133986],[8.06329450893446,10.7809854173432],[8.06067780193905,10.7671612034268],[8.08687715575616,10.7403334753097],[8.07462201869129,10.7245352090327],[8.07516871656304,10.7063993871221],[8.08875889360809,10.6813434943069],[8.11427994906046,10.6714792822431],[8.1299010111228,10.6848856090837],[8.16617303535736,10.6703877687805],[8.17730016806837,10.6804440121815],[8.20585284443325,10.6689736783926],[8.2123895235577,10.6511092709761],[8.23486880744957,10.6661586070342],[8.24186752496638,10.6412684538761],[8.2543598905965,10.6301596088789],[8.24427178241689,10.6065909096428],[8.25915781058455,10.5891001534494],[8.30666393918949,10.5771175451387],[8.31911706829811,10.5270254411712],[8.32027323761986,10.4937643534422],[8.34932354034913,10.4928220402051],[8.38102543837334,10.4731253873268],[8.41621836068884,10.4442038099579]]]},"properties":{"globalid":"edf7b0b1-49d4-43b5-b0dc-31a249b3fdaf","uniq_id":28373,"timestamp":"Fri, 09 Aug 2019 00:00:00 GMT","editor":"nuraddeen.isah","lganame":"Kubau","lgacode":"19015","statename":"Kaduna","statecode":"KD","source":"eHA_Polio","amapcode":"NIE KDS ANC"},"id":324},
{"type":"Feature","geometry":{"type":"Polygon","coordinates":[[[7.88944704714356,10.677986308921],[7.8988391034419,10.6957434290161],[7.94772957555949,10.7146108512098],[7.95413979021919,10.6921543462461],[7.97870337615996,10.7106957534064],[8.01924644356859,10.7076709682406],[8.04883332769595,10.6904514161],[8.08875889360809,10.6813434943069],[8.07516871656304,10.7063993871221],[8.07462201869129,10.7245352090327],[8.08687715575616,10.7403334753097],[8.06067780193905,10.7671612034268],[8.06329450893446,10.7809854173432],[8.12660398768395,10.8089588133986],[8.14494576423567,10.7966186139579],[8.15661996174191,10.8084555213053],[8.15813199189796,10.8415769856894],[8.18317071935326,10.896002995442],[8.23192699733312,10.9135931150303],[8.25027485420122,10.9366339580907],[8.24934400911877,10.95204061818],[8.23420619326129,10.972785322085],[8.21428450842336,11.0266288499415],[8.19741528898447,11.0322606635988],[8.17707616942971,11.0717410246286],[8.16605950404295,11.0802420928983],[8.15791569415398,11.1155026532249],[8.11858385076414,11.1496611924102],[8.11418250931541,11.1628723825544],[8.09171576107354,11.1737888140026],[8.07059921987815,11.1708765322262],[8.04794257439033,11.1956140992114],[8.00349372795324,11.2160965787941],[7.99286127362893,11.2330130737944],[7.96014148963809,11.2301405528443],[7.92527312815241,11.2208431582852],[7.88135715430928,11.1941726406549],[7.86110802991169,11.1898680482719],[7.84126978597192,11.1993447964252],[7.84392259085496,11.1719380586945],[7.83604949398898,11.1609165972232],[7.81260459002988,11.1534674011996],[7.78399117525259,11.1478638001743],[7.7726839757849,11.1369563511547],[7.78807319082517,11.1067245730806],[7.7995347499288,11.1044914862931],[7.81624121006382,11.0659278150167],[7.82017727556087,11.0353450513331],[7.80630486517742,11.0288199248997],[7.79951977891471,11.0107396720982],[7.81452800156609,10.9990635059761],[7.80885909177374,10.9805801383628],[7.81745242958601,10.9606593375584],[7.79187999676446,10.9226047041439],[7.79915470002942,10.9083533590203],[7.83387580922124,10.8731073821],[7.81434378713612,10.8508437736213],[7.81555926674679,10.8307007719231],[7.85569704478286,10.7937594011755],[7.87895638442967,10.7952302882472],[7.87688433294568,10.7754474677265],[7.88619219021746,10.7643915604222],[7.85071438606013,10.7477259951586],[7.86388065326958,10.730849476822],[7.87256643599227,10.6995745184493],[7.88944704714356,10.677986308921]]]},"properties":{"globalid":"d2880df7-b0be-4c6e-90be-e9bb071692a4","uniq_id":28407,"timestamp":"Fri, 09 Aug 2019 00:00:00 GMT","editor":"nuraddeen.isah","lganame":"Soba","lgacode":"19021","statename":"Kaduna","statecode":"KD","source":"eHA_Polio","amapcode":"NIE KDS MGN"},"id":365},
{"type":"Feature","geometry":{"type":"Polygon","coordinates":[[[7.3780200221064,10.4901430119905],[7.40549972273408,10.5337288492071],[7.41183903664228,10.5604615297758],[7.41273739371582,10.5796078281388],[7.42382062332314,10.6040331918783],[7.45131972142804,10.6186076840974],[7.46504732297564,10.6102938223021],[7.46002676232524,10.5845814342858],[7.48705329187595,10.5625392020226],[7.52075910694725,10.5586208792502],[7.52170982524831,10.5715651110411],[7.57581270858969,10.5761351976813],[7.60205399959244,10.5877871522553],[7.64721072309646,10.5614963310908],[7.67457755431076,10.5603559403744],[7.67975968356262,10.5854597778465],[7.69751593131525,10.5903652801336],[7.70514465180429,10.5501743215877],[7.69534387701833,10.5409462072017],[7.69860635839677,10.5099775777031],[7.71026603724789,10.4905059334022],[7.72965081513308,10.4775227771545],[7.75630703534148,10.4946584477293],[7.7781743485674,10.499838596674],[7.79893506040474,10.4898963738186],[7.81691838967197,10.5076401012097],[7.82920360096546,10.4978910005693],[7.85215440030538,10.5080024542499],[7.85334279863127,10.525178463915],[7.86968182815389,10.5267066899618],[7.87249409812415,10.5622515772486],[7.88136472929887,10.5896563058939],[7.85751572037424,10.5797692483522],[7.85293399021151,10.5955452312275],[7.86890012574025,10.6335131349233],[7.86418310876348,10.6673927241949],[7.88944704714356,10.677986308921],[7.87256643599227,10.6995745184493],[7.86388065326958,10.730849476822],[7.85071438606013,10.7477259951586],[7.88619219021746,10.7643915604222],[7.87688433294568,10.7754474677265],[7.87895638442967,10.7952302882472],[7.85569704478286,10.7937594011755],[7.81555926674679,10.8307007719231],[7.81434378713612,10.8508437736213],[7.83387580922124,10.8731073821],[7.79915470002942,10.9083533590203],[7.79187999676446,10.9226047041439],[7.77825962498173,10.9210610277443],[7.76487898187958,10.9435246580366],[7.7599299838817,10.9703211014377],[7.7301403188207,10.9619564711143],[7.71051554515634,10.9869329160213],[7.66839707416568,10.9998649296228],[7.65280512315798,10.9733682581386],[7.63057431025624,10.9768454562529],[7.6255208218285,10.9966411505687],[7.59688807522451,11.006667481619],[7.5718408563705,11.0027072927074],[7.52310972703231,10.9705961410991],[7.4919788400515,10.9629259330854],[7.45174114283952,10.9720264021968],[7.43234499482571,10.9902070409223],[7.42598257283754,11.0146094827415],[7.40857460913094,11.0002900598384],[7.376600015978,11.0139153922816],[7.35321928224414,11.0109730021024],[7.31550309609105,10.9622546458353],[7.30971476712284,10.9419550568804],[7.27639522885676,10.929166210852],[7.25802220266257,10.9160286823778],[7.2429044290962,10.8882076998256],[7.21565331994481,10.8520955138969],[7.20812342505604,10.8347639817724],[7.20560382325789,10.7503403216486],[7.18818439229591,10.7261811095706],[7.2126760981235,10.6929511806525],[7.26355454680493,10.6575184756971],[7.29456653711605,10.6495307080758],[7.31061085340821,10.6271909171272],[7.30767174755317,10.5942523802432],[7.27984604266078,10.5852809503556],[7.25478379883327,10.559178177431],[7.24245159976158,10.527214050588],[7.25570224496266,10.516347778827],[7.28606583037384,10.5182172724092],[7.28960091964677,10.488327000191],[7.31196182757634,10.5020126717475],[7.33711785090816,10.491355849393],[7.3780200221064,10.4901430119905]]]},"properties":{"globalid":"852169ab-2c76-4e9a-9d0e-35a6e93e073a","uniq_id":28419,"timestamp":"Fri, 09 Aug 2019 00:00:00 GMT","editor":"nuraddeen.isah","lganame":"Igabi","lgacode":"19004","statename":"Kaduna","statecode":"KD","source":"eHA_Polio","amapcode":"NIE KDS TRK"},"id":377},
{"type":"Feature","geometry":{"type":"Polygon","coordinates":[[[7.84126978597192,11.1993447964252],[7.86110802991169,11.1898680482719],[7.88135715430928,11.1941726406549],[7.92527312815241,11.2208431582852],[7.96014148963809,11.2301405528443],[7.99286127362893,11.2330130737944],[8.00349372795324,11.2160965787941],[8.04794257439033,11.1956140992114],[8.05550863911247,11.2168064271749],[8.08095661655466,11.2336699790863],[8.08206414604354,11.2574667122191],[8.10553425440236,11.2661092942086],[8.10338520566273,11.2869224644003],[8.06489257813001,11.2968894671752],[8.05872162000679,11.3116504877798],[8.06051134911951,11.3625687674347],[8.05281230704236,11.3674193247421],[8.01553774826851,11.35884089679],[7.99636809271334,11.3363943221403],[7.97337874213531,11.3598380443903],[7.96356163296304,11.3852251161462],[7.97565448916339,11.4013982882005],[7.96456672967088,11.4227521326049],[7.95648530755096,11.4674136426256],[7.94223764605056,11.4629477946051],[7.91698417487981,11.4355761583131],[7.90005941870726,11.4313062060166],[7.87891825227558,11.3862289142331],[7.82680442288586,11.3695988029424],[7.80551980739324,11.3716957008959],[7.84400104771021,11.3165796899008],[7.85313329706406,11.321213443146],[7.87648047529376,11.2819163540565],[7.8141084363553,11.2902446148971],[7.80912507076545,11.228265692108],[7.81288997998865,11.2032108658888],[7.84126978597192,11.1993447964252]]]},"properties":{"globalid":"4d38525c-9159-4bf1-97e2-e28500422439","uniq_id":28435,"timestamp":"Fri, 09 Aug 2019 00:00:00 GMT","editor":"nuraddeen.isah","lganame":"Makarfi","lgacode":"19018","statename":"Kaduna","statecode":"KD","source":"eHA_Polio","amapcode":"NIE KDS MKR"},"id":401},
{"type":"Feature","geometry":{"type":"Polygon","coordinates":[[[7.41183903664228,10.5604615297758],[7.42044999936803,10.5555414368878],[7.42613657993928,10.5229968489255],[7.4185204202812,10.5021917681356],[7.44077132223879,10.4879961504021],[7.46215830396261,10.5087037887489],[7.48705329187595,10.5625392020226],[7.46002676232524,10.5845814342858],[7.46504732297564,10.6102938223021],[7.45131972142804,10.6186076840974],[7.42382062332314,10.6040331918783],[7.41273739371582,10.5796078281388],[7.41183903664228,10.5604615297758]]]},"properties":{"globalid":"159a716a-dc8f-4781-98ed-d8048b6bb4e7","uniq_id":28453,"timestamp":"Fri, 09 Aug 2019 00:00:00 GMT","editor":"nuraddeen.isah","lganame":"Kaduna North","lgacode":"19009","statename":"Kaduna","statecode":"KD","source":"eHA_Polio","amapcode":"NIE KDS DKA"},"id":422},
{"type":"Feature","geometry":{"type":"Polygon","coordinates":[[[8.50604733481669,11.1322356163806],[8.50900432818725,11.1586151934365],[8.48340622062062,11.161623281789],[8.46187243806264,11.171766610141],[8.43381434475623,11.2265834023022],[8.35930682175245,11.226579517231],[8.33617214342974,11.2332795024471],[8.32517910233378,11.2271821619273],[8.29790788524076,11.2342239389836],[8.28611569578277,11.2682405435663],[8.25727495667394,11.2796680453441],[8.25568097219917,11.3150357374094],[8.248775529667,11.3257226825558],[8.206780772115,11.318701683436],[8.16744860406988,11.3543435104447],[8.14993198787101,11.3753931133016],[8.12291375726414,11.3866727971119],[8.11372187026814,11.4084842642375],[8.14332452130964,11.4202675746889],[8.14038953614823,11.4567543624239],[8.15388129318717,11.4774229746906],[8.16178865332375,11.5055374752743],[8.15008142012147,11.5191704375657],[8.08659329734286,11.5173867114277],[8.0819157597046,11.5055135317241],[8.0408363051514,11.4869435881761],[8.00090000043474,11.4921000004147],[7.96842311343596,11.4786776638431],[7.95648530755096,11.4674136426256],[7.96456672967088,11.4227521326049],[7.97565448916339,11.4013982882005],[7.96356163296304,11.3852251161462],[7.97337874213531,11.3598380443903],[7.99636809271334,11.3363943221403],[8.01553774826851,11.35884089679],[8.05281230704236,11.3674193247421],[8.06051134911951,11.3625687674347],[8.05872162000679,11.3116504877798],[8.06489257813001,11.2968894671752],[8.10338520566273,11.2869224644003],[8.10553425440236,11.2661092942086],[8.08206414604354,11.2574667122191],[8.08095661655466,11.2336699790863],[8.05550863911247,11.2168064271749],[8.04794257439033,11.1956140992114],[8.07059921987815,11.1708765322262],[8.09171576107354,11.1737888140026],[8.11418250931541,11.1628723825544],[8.11858385076414,11.1496611924102],[8.15791569415398,11.1155026532249],[8.16707577842448,11.1247315913899],[8.21316732381297,11.1403462331921],[8.22531139460523,11.105278989334],[8.25645617791031,11.099807562569],[8.28871939678277,11.1053769353973],[8.310732759909,11.1273871284133],[8.30219473040256,11.1617090753136],[8.31946751521372,11.1847363179268],[8.34697359115836,11.1666058982436],[8.35686317039904,11.1718572501121],[8.40166369492363,11.153873988294],[8.4085110574394,11.1102423459076],[8.42266817429686,11.1057343826357],[8.44541554519128,11.115371290153],[8.47888583861061,11.1133660232234],[8.50604733481669,11.1322356163806]]]},"properties":{"globalid":"5c1feb9a-eca5-4de0-a0ce-b2bf2d30d388","uniq_id":28458,"timestamp":"Fri, 09 Aug 2019 00:00:00 GMT","editor":"nuraddeen.isah","lganame":"Ikara","lgacode":"19005","statename":"Kaduna","statecode":"KD","source":"eHA_Polio","amapcode":"NIE KDS KAR"},"id":427},
{"type":"Feature","geometry":{"type":"Polygon","coordinates":[[[7.64565319443943,11.1307553835542],[7.66190178094246,11.1203834088673],[7.674472385792,11.1268669056832],[7.68905031162262,11.1105957695792],[7.71961562935786,11.0942266451436],[7.74937917810661,11.0902259390759],[7.7487498010625,11.1326896544041],[7.7726839757849,11.1369563511547],[7.78399117525259,11.1478638001743],[7.81260459002988,11.1534674011996],[7.78976017779001,11.1614948936744],[7.75619303637956,11.1986808539383],[7.75656714265955,11.2198633046478],[7.74606092886881,11.2447787953052],[7.71423993272674,11.2364031599779],[7.72148315342486,11.2049915882912],[7.70330528910785,11.1941940939823],[7.69620817226939,11.2127481995698],[7.6580129514366,11.2073205922716],[7.65230071680469,11.2214700226235],[7.62473744038061,11.2163365655801],[7.60217590719242,11.1798655438598],[7.61916974208998,11.1676470874432],[7.64565319443943,11.1307553835542]]]},"properties":{"globalid":"424e5c0b-f7a7-4eda-8c35-3cd111e1cb08","uniq_id":28469,"timestamp":"Fri, 09 Aug 2019 00:00:00 GMT","editor":"nuraddeen.isah","lganame":"Sabon Gari","lgacode":"19019","statename":"Kaduna","statecode":"KD","source":"eHA_Polio","amapcode":"NIE KDS SBG"},"id":442},
{"type":"Feature","geometry":{"type":"Polygon","coordinates":[[[7.18818439229591,10.7261811095706],[7.20560382325789,10.7503403216486],[7.20812342505604,10.8347639817724],[7.21565331994481,10.8520955138969],[7.2429044290962,10.8882076998256],[7.25802220266257,10.9160286823778],[7.27639522885676,10.929166210852],[7.30971476712284,10.9419550568804],[7.31550309609105,10.9622546458353],[7.35321928224414,11.0109730021024],[7.376600015978,11.0139153922816],[7.40857460913094,11.0002900598384],[7.42598257283754,11.0146094827415],[7.43234499482571,10.9902070409223],[7.45174114283952,10.9720264021968],[7.4919788400515,10.9629259330854],[7.52310972703231,10.9705961410991],[7.50558946767984,11.0195795365664],[7.49543228167448,11.029941999124],[7.51353153625143,11.0613776186822],[7.54469134812729,11.0588583559284],[7.60555027232726,11.0706732667579],[7.61404198944632,11.0858671994118],[7.63812136510899,11.0917074111682],[7.64565319443943,11.1307553835542],[7.61916974208998,11.1676470874432],[7.60217590719242,11.1798655438598],[7.62473744038061,11.2163365655801],[7.61896141863463,11.2284790877397],[7.62316894359191,11.2629433316695],[7.61866756155877,11.277690311159],[7.60750208175574,11.2718020827999],[7.57756133868486,11.315480521409],[7.55092843519918,11.3313966789137],[7.52172519736001,11.340404114958],[7.52029524742778,11.3616008460023],[7.49635852222809,11.3515690722549],[7.47250399596271,11.3760157526249],[7.39231300404197,11.3748302456194],[7.37011003505012,11.3332004554367],[7.35778190810862,11.2642571152737],[7.32019681882815,11.2650690825722],[7.29756970977434,11.2736470572659],[7.22739825542521,11.2786349401504],[7.20995729919008,11.2611072344114],[7.19478590804329,11.2575612066844],[7.21136888316749,11.2024396216912],[7.20007402959283,11.1731590133778],[7.20102474879315,11.153385120427],[7.16155418227976,11.1308666072082],[7.16281295525374,11.0920686445523],[7.14192090732405,11.0317933012199],[7.14643682240148,11.0035641379746],[7.12912872481087,10.9701564427656],[7.13602410392929,10.9520491842225],[7.11371079801495,10.903970977079],[7.09659785780497,10.8859995152654],[7.07235452584075,10.9126062277952],[7.06712557158789,10.9301093460695],[7.04145616127289,10.9394439213],[6.99748541062326,10.9338432106957],[6.95267002300318,10.8942919992764],[6.99600911233074,10.7961338191205],[7.01852943228749,10.78560368786],[7.12920343509052,10.714374335807],[7.18818439229591,10.7261811095706]]]},"properties":{"globalid":"0cb7bc8e-c19e-4663-8d1b-6daf1296b3e5","uniq_id":28472,"timestamp":"Fri, 09 Aug 2019 00:00:00 GMT","editor":"nuraddeen.isah","lganame":"Giwa","lgacode":"19003","statename":"Kaduna","statecode":"KD","source":"eHA_Polio","amapcode":"NIE KDS GKW"},"id":446},
{"type":"Feature","geometry":{"type":"Polygon","coordinates":[[[7.25137295090099,9.52103349599906],[7.21898227741025,9.49268010400363],[7.20089664576363,9.45982122367059],[7.22141344617364,9.37529309110334],[7.22236416537396,9.33232913418226],[7.23225743992896,9.31771887502612],[7.27370298600403,9.3293270883745],[7.33397856495884,9.34077225193795],[7.38969069337082,9.33589403058511],[7.5091009884199,9.35503127457372],[7.54209411325274,9.3873511408425],[7.61406035630046,9.40605877059585],[7.64695523019975,9.4086849834253],[7.66749075809207,9.40136905793571],[7.67072320301344,9.38392276512354],[7.6929700247469,9.34940278301207],[7.73118892472917,9.32613738463266],[7.76385784126643,9.29585838315791],[7.79292964858445,9.275596618789],[7.80838730113311,9.27284627793341],[7.87250140781379,9.289969744708],[7.91908663424084,9.31736555117931],[7.90653714457363,9.32974925172664],[7.95930290870234,9.39756577104356],[7.94734736279059,9.44498554944357],[7.9556296197112,9.46079475687259],[7.95300350940448,9.5022850828903],[7.9418097962851,9.50823962455905],[7.93264549599292,9.53972620959695],[7.94432342028966,9.55993680434011],[7.9286793265897,9.56743348726565],[7.92746417972813,9.61465501371794],[7.94785084284217,9.63493376088439],[7.9206094742479,9.6372296428338],[7.90042154062166,9.67427204162146],[7.86559287071447,9.67766318630703],[7.86727648971828,9.69340910844363],[7.83652286923507,9.69160198914051],[7.81579214708995,9.64789954043147],[7.80081928308351,9.65222732003485],[7.76950821243412,9.6795015390648],[7.74864015212137,9.67651191019655],[7.74780142099883,9.63560432957621],[7.73425278723641,9.60923639064697],[7.71237365332149,9.6036175011468],[7.6920066745684,9.6174219209849],[7.64800114533665,9.62712453297087],[7.62026089582372,9.60840297361841],[7.61208575175607,9.59534427701681],[7.5679253358856,9.57729056860489],[7.55668312142893,9.57929001422281],[7.52970948370574,9.60228148899955],[7.51217792617041,9.58710078537297],[7.48253937419281,9.60536641812575],[7.44798437877608,9.61620356893962],[7.43372630222711,9.59327119311115],[7.37500029562722,9.5793046731722],[7.34348575426418,9.58253308283554],[7.30873371378993,9.57285573820178],[7.30016464957896,9.52722810629211],[7.2899797716492,9.51413178385479],[7.25137295090099,9.52103349599906]]]},"properties":{"globalid":"99467e1f-6307-4c27-b024-5026fbeee3c6","uniq_id":28485,"timestamp":"Fri, 09 Aug 2019 00:00:00 GMT","editor":"nuraddeen.isah","lganame":"Kagarko","lgacode":"19011","statename":"Kaduna","statecode":"KD","source":"eHA_Polio","amapcode":"NIE KDS KGK"},"id":458},
{"type":"Feature","geometry":{"type":"Polygon","coordinates":[[[7.16155418227976,11.1308666072082],[7.12929246167784,11.1381645588473],[7.11867883915716,11.1560862926484],[7.09575385035993,11.1695232548943],[7.07665540672167,11.1953051856858],[7.02545017498562,11.2095588339731],[6.96773385972989,11.2451696397671],[6.97825384124184,11.2636699676949],[7.00869989358529,11.2938404084082],[7.01362848056999,11.3492296945948],[7.00619316108555,11.3617897027327],[6.96131215173449,11.3587627708852],[6.91928806009594,11.3849134488966],[6.88783793537249,11.3823481777263],[6.87917450889654,11.3673189550058],[6.84454175989435,11.3603555916373],[6.83288240120191,11.3519679917295],[6.83985700879396,11.3188645245782],[6.8294863731976,11.307184244957],[6.787132883276,11.319833053053],[6.77064321821001,11.3201185869033],[6.76677354786102,11.2721623116414],[6.73047924921804,11.2581537106253],[6.70335339314465,11.2390228437293],[6.68907662688486,11.2036164646282],[6.68498395434608,11.151544340399],[6.69087542925769,11.1208906822592],[6.71599999790163,11.1062218070908],[6.70701496127151,11.0942534161623],[6.68741851984885,11.0916629702699],[6.65653178711233,11.0519876452137],[6.60545416287937,11.0464861226365],[6.57728936591155,11.0215674483791],[6.55157705433766,11.0417548585999],[6.5333741771766,11.0479414577321],[6.51076929666579,11.0436584283938],[6.43700600582258,11.0076095952067],[6.41898314595545,11.0277415874044],[6.3916111139618,11.0338458113352],[6.36480465571032,11.0176634329212],[6.33703472587194,11.0214891785828],[6.30416757897063,11.0030679918943],[6.27863968057687,10.9634524942373],[6.26717714031281,10.9666824102651],[6.25102061381034,10.9483105082234],[6.23748349856464,10.9453272798302],[6.23102927108403,10.918600339634],[6.20922894116273,10.9017727489133],[6.16460702469448,10.8931037430434],[6.15783258280749,10.8851165213105],[6.16280535618228,10.8561428390208],[6.12259963976163,10.8448654781594],[6.13635516705739,10.8253244448673],[6.11378747711041,10.8143738023092],[6.10389366116357,10.7695121625563],[6.11650494864449,10.7428553766744],[6.09889763491799,10.7016606892894],[6.13723062109631,10.6792394566357],[6.13082030841053,10.6459743444405],[6.11480069469633,10.6053038502925],[6.13400521696724,10.5901275335589],[6.12445574063997,10.5541869949339],[6.09364019373999,10.5461970914227],[6.09224300610987,10.5217838388531],[6.15833177579088,10.5008316631508],[6.17489622218295,10.4422003137935],[6.16138598677389,10.4175764247123],[6.17309901970407,10.3809010464462],[6.20926199124796,10.3748867601159],[6.21671325031627,10.3893816371529],[6.23565112539916,10.384797583142],[6.25445398706188,10.4274483061944],[6.28536035289801,10.4141876137674],[6.32163017829015,10.4435058479166],[6.31542391638067,10.480156502021],[6.32708856668404,10.4952076664007],[6.35533256604515,10.5112025001953],[6.38294645181736,10.5404336026287],[6.40242614774854,10.5744223354225],[6.42442340581556,10.577085856627],[6.43558246985515,10.5908236555873],[6.45989710636644,10.5941879231342],[6.49454360780129,10.6156928419512],[6.52426815025495,10.5950069429161],[6.52159309434586,10.5728349690586],[6.54033184064195,10.5452098849283],[6.57406568488352,10.5572576527185],[6.58691692407683,10.5741243360693],[6.64706993083269,10.5934295653223],[6.70984554323729,10.5875358582933],[6.73132591775692,10.5964021502391],[6.71416119997946,10.6341153857165],[6.71978015513008,10.6435033303145],[6.737840264017,10.6708314403188],[6.75277972180675,10.7081359941809],[6.76685036165492,10.7309287268793],[6.79660009861573,10.75470431785],[6.80930546867251,10.7915105960372],[6.8298759127432,10.7902777846921],[6.85413014269199,10.8117142174372],[6.86113295212408,10.7834639309157],[6.91690236555178,10.7507461928826],[6.92792638109768,10.7189566856026],[6.94227787202624,10.6976017530185],[7.00757666822869,10.663193078198],[7.0096612715505,10.6086770121345],[7.01750112407768,10.594470548577],[7.01921358703748,10.5602450359797],[7.10442196230377,10.5565823481969],[7.11033525926484,10.6084642631153],[7.12355532032183,10.6668644858074],[7.12920343509052,10.714374335807],[7.01852943228749,10.78560368786],[6.99600911233074,10.7961338191205],[6.95267002300318,10.8942919992764],[6.99748541062326,10.9338432106957],[7.04145616127289,10.9394439213],[7.06712557158789,10.9301093460695],[7.07235452584075,10.9126062277952],[7.09659785780497,10.8859995152654],[7.11371079801495,10.903970977079],[7.13602410392929,10.9520491842225],[7.12912872481087,10.9701564427656],[7.14643682240148,11.0035641379746],[7.14192090732405,11.0317933012199],[7.16281295525374,11.0920686445523],[7.16155418227976,11.1308666072082]]]},"properties":{"globalid":"8d63fba5-0389-4f93-bd84-35e527376454","uniq_id":28488,"timestamp":"Fri, 09 Aug 2019 00:00:00 GMT","editor":"nuraddeen.isah","lganame":"Birnin Gwari","lgacode":"19001","statename":"Kaduna","statecode":"KD","source":"eHA_Polio","amapcode":"NIE KDS BNG"},"id":462},
{"type":"Feature","geometry":{"type":"Polygon","coordinates":[[[7.51055232333113,10.1946841005908],[7.51655597967476,10.2312224689418],[7.53819676986507,10.2750229068817],[7.55785892115233,10.2899104216287],[7.57783278915196,10.2813548562416],[7.58961008044093,10.3083817787961],[7.6041446706401,10.3090627301609],[7.60661292384742,10.3465557441523],[7.59645869841023,10.3947020191829],[7.62490976757175,10.3891818635522],[7.66417211225325,10.3986921744044],[7.69128193970982,10.4318397191278],[7.70789771670633,10.4400358389829],[7.71465626577407,10.4634696731869],[7.72965081513308,10.4775227771545],[7.71026603724789,10.4905059334022],[7.69860635839677,10.5099775777031],[7.69534387701833,10.5409462072017],[7.70514465180429,10.5501743215877],[7.69751593131525,10.5903652801336],[7.67975968356262,10.5854597778465],[7.67457755431076,10.5603559403744],[7.64721072309646,10.5614963310908],[7.60205399959244,10.5877871522553],[7.57581270858969,10.5761351976813],[7.52170982524831,10.5715651110411],[7.52075910694725,10.5586208792502],[7.48705329187595,10.5625392020226],[7.46215830396261,10.5087037887489],[7.44077132223879,10.4879961504021],[7.43232967757262,10.4444519086287],[7.4048037787714,10.4352739332455],[7.39865801065872,10.4678090000853],[7.3780200221064,10.4901430119905],[7.33711785090816,10.491355849393],[7.31196182757634,10.5020126717475],[7.28960091964677,10.488327000191],[7.28606583037384,10.5182172724092],[7.25570224496266,10.516347778827],[7.24245159976158,10.527214050588],[7.25478379883327,10.559178177431],[7.27984604266078,10.5852809503556],[7.30767174755317,10.5942523802432],[7.31061085340821,10.6271909171272],[7.29456653711605,10.6495307080758],[7.26355454680493,10.6575184756971],[7.2126760981235,10.6929511806525],[7.18818439229591,10.7261811095706],[7.12920343509052,10.714374335807],[7.12355532032183,10.6668644858074],[7.11033525926484,10.6084642631153],[7.10442196230377,10.5565823481969],[7.01921358703748,10.5602450359797],[7.01750112407768,10.594470548577],[7.0096612715505,10.6086770121345],[7.00757666822869,10.663193078198],[6.94227787202624,10.6976017530185],[6.92792638109768,10.7189566856026],[6.91690236555178,10.7507461928826],[6.86113295212408,10.7834639309157],[6.85413014269199,10.8117142174372],[6.8298759127432,10.7902777846921],[6.80930546867251,10.7915105960372],[6.79660009861573,10.75470431785],[6.76685036165492,10.7309287268793],[6.75277972180675,10.7081359941809],[6.737840264017,10.6708314403188],[6.71978015513008,10.6435033303145],[6.75989914902658,10.6452779418236],[6.78530406962716,10.6391830438624],[6.80297422258235,10.6431989673585],[6.82947921819141,10.6247253421009],[6.82947921819141,10.5998268126573],[6.84192895865459,10.5725183492425],[6.83550310118721,10.5379810326986],[6.84433841688445,10.5283432006782],[6.86910247789706,10.5553569787416],[6.91260910012994,10.5379810326986],[6.93590164184735,10.5002317434003],[6.95351982118285,10.4821786878962],[6.95437478956495,10.462481499022],[6.93831110007727,10.4335670469817],[6.92305088019401,10.3821630488857],[6.9342951765812,10.3612794878582],[6.97721385983181,10.3648300166919],[7.02023649212049,10.354051589809],[7.03389072427757,10.343609809745],[7.05075740762828,10.3171043401932],[7.04593849206782,10.2914028168865],[7.01943302161669,10.2737321845927],[7.00979471205636,10.2504396437746],[6.9704389565926,10.2327699656614],[6.95447254317338,10.1919984830436],[6.94232702267402,10.1805629737023],[6.92144441582718,10.1910037986864],[6.88530111425507,10.1508445754169],[6.88208818372277,10.1171112069167],[6.90117883743346,10.0763816830683],[6.91442203534871,10.0778360370036],[6.95227336892088,10.0475549697861],[7.06498670587183,10.0425081246503],[7.10536146156227,10.0265264506352],[7.13816595089799,10.0357789987019],[7.17938184699472,10.0273675919408],[7.21601581597719,10.0374078750734],[7.25406694383446,10.0392265326784],[7.27340173740032,10.046627998983],[7.28850221610446,10.0405378341538],[7.30049228698948,10.0577239989634],[7.33496475162201,10.0602588649547],[7.3586634478599,10.079738818092],[7.37192767282392,10.0822682989429],[7.39961748925577,10.1106316644198],[7.40849416387459,10.139376816387],[7.42979007575144,10.1595970077957],[7.44511013922158,10.1840755052804],[7.51055232333113,10.1946841005908]]]},"properties":{"globalid":"0113a5f5-4af4-4dfb-b31c-72b04d0cd734","uniq_id":28490,"timestamp":"Fri, 09 Aug 2019 00:00:00 GMT","editor":"nuraddeen.isah","lganame":"Chikun","lgacode":"19002","statename":"Kaduna","statecode":"KD","source":"eHA_Polio","amapcode":"NIE KDS KJM"},"id":464},
{"type":"Feature","geometry":{"type":"MultiPolygon","coordinates":[[[[8.43423817904875,9.99397275883581],[8.43574108558266,9.96539540057734],[8.42201992138229,9.93733501399976],[8.42019889226509,9.91801559884084],[8.44348889519642,9.87781927583893],[8.47357608566784,9.88055700370279],[8.48314379035367,9.86845012527311],[8.50962054185459,9.86508182336752],[8.51389629118097,9.82991551378996],[8.50455641444699,9.79313731963163],[8.48465049472458,9.76406354010032],[8.50107810656942,9.74089815172835],[8.51548433923091,9.73315724081408],[8.5614681944017,9.74402541643985],[8.58217493432579,9.72393972044182],[8.59886006883715,9.7279239976944],[8.63360885466494,9.75463022200717],[8.64394792315818,9.77536012217195],[8.64394792315818,9.83473182671247],[8.63469241092605,9.8668341083075],[8.6796438308981,10.0110515212108],[8.64011219142452,10.0150401997454],[8.61072467890085,10.0012462552106],[8.57533569898339,10.0215167546945],[8.53845138842087,10.0323319521579],[8.5146453509023,10.0182017214323],[8.49404353488126,10.0217659397464],[8.47610886972859,9.99572920673756],[8.45629973504481,9.98394296899289],[8.43423817904875,9.99397275883581]]],[[[8.43428441409446,9.99801654962414],[8.45527474623259,10.0177928518587],[8.45128554968841,10.0449285752936],[8.46634073583635,10.0530783602782],[8.47665835190145,10.0795150541765],[8.50090140057921,10.0921728438017],[8.48624243773838,10.1307546040418],[8.43887849374755,10.1523108561611],[8.43952993206074,10.1760665073635],[8.41533661679148,10.188561097017],[8.42428995142018,10.2092452585619],[8.41891291659789,10.2338787901741],[8.40423794312665,10.2542167001407],[8.39588993767052,10.2944226009224],[8.37943669244947,10.2957455027528],[8.35305433558915,10.2660361534458],[8.32798770217079,10.2460442792201],[8.31985022440836,10.2968896814137],[8.33420447715497,10.3393248864344],[8.33045208829327,10.3538796709101],[8.36302052357837,10.3939390046814],[8.39129948498328,10.3937620576729],[8.40710914656989,10.4030673069107],[8.42167188105253,10.4354465473203],[8.41621836068884,10.4442038099579],[8.38102543837334,10.4731253873268],[8.34932354034913,10.4928220402051],[8.32027323761986,10.4937643534422],[8.31911706829811,10.5270254411712],[8.30666393918949,10.5771175451387],[8.25915781058455,10.5891001534494],[8.24427178241689,10.6065909096428],[8.2543598905965,10.6301596088789],[8.24186752496638,10.6412684538761],[8.23486880744957,10.6661586070342],[8.2123895235577,10.6511092709761],[8.20585284443325,10.6689736783926],[8.17730016806837,10.6804440121815],[8.16617303535736,10.6703877687805],[8.1299010111228,10.6848856090837],[8.11427994906046,10.6714792822431],[8.08875889360809,10.6813434943069],[8.04883332769595,10.6904514161],[8.01924644356859,10.7076709682406],[7.97870337615996,10.7106957534064],[7.95413979021919,10.6921543462461],[7.94772957555949,10.7146108512098],[7.8988391034419,10.6957434290161],[7.88944704714356,10.677986308921],[7.86418310876348,10.6673927241949],[7.86890012574025,10.6335131349233],[7.85293399021151,10.5955452312275],[7.85751572037424,10.5797692483522],[7.88136472929887,10.5896563058939],[7.87249409812415,10.5622515772486],[7.86968182815389,10.5267066899618],[7.88746558526861,10.5143182329002],[7.89800694006829,10.4886956242037],[7.92099201077275,10.4789114302184],[7.93165793066902,10.4661569778623],[7.94886175456639,10.476960888834],[7.97674362661712,10.4791093799939],[8.01135844583564,10.4750806762323],[8.00022679043406,10.4496740712015],[8.00830988619236,10.4100694589384],[8.02341863775996,10.3933711475605],[8.03937374400311,10.3431566656477],[8.03271449357908,10.302035070662],[8.05935088463565,10.3178345564197],[8.07723838394429,10.3055331627253],[8.09769075512429,10.3122973676295],[8.11709297805857,10.2884775183228],[8.14446078503727,10.2820390163876],[8.14455874009383,10.2502708149462],[8.16427853162895,10.230530179824],[8.19387521027278,10.218518908321],[8.1718442123406,10.1999046147063],[8.20622543985223,10.1678277803279],[8.20295559122758,10.1470035934411],[8.24005847661743,10.1194605238841],[8.22111062355646,10.104036243378],[8.23843145914458,10.0902879403362],[8.2462565214214,10.0630217954196],[8.27163315384701,10.0547531344496],[8.265954683362,10.0313743873182],[8.28447758966905,10.0262979589837],[8.31986815958794,10.0288154545696],[8.33491117161333,10.016729740785],[8.35819807907814,10.0290810927183],[8.39991881500134,10.0024826953202],[8.41603190065172,10.0073154253666],[8.43428441409446,9.99801654962414]]]]},"properties":{"globalid":"ad5a9ab1-c2aa-43fc-af1c-438a6fdfe568","uniq_id":28492,"timestamp":"Fri, 09 Aug 2019 00:00:00 GMT","editor":"nuraddeen.isah","lganame":"Kauru","lgacode":"19014","statename":"Kaduna","statecode":"KD","source":"eHA_Polio","amapcode":"NIE KDS KRU"},"id":466}
]}