{
"type": "FeatureCollection",
"name": "kaduna_boundary",
"crs": { "type": "name", "properties": { "name": "urn:ogc:def:crs:OGC:1.3:CRS84" } },
"features": [
{ "type": "Feature", "properties": { "globalid": "f1565a21-4f8f-4681-a3cf-25472530528e", "uniq_id": 28189, "timestamp": "Fri, 09 Aug 2019 00:00:00 GMT", "editor": "nuraddeen.isah", "lga_name": "Jema'A", "lga_code": "19007", "state_name": "Kaduna", "state_code": "KD", "source": "eHA_Polio", "amapcode": "NIE KDS KAF" }, "geometry": { "type": "MultiPolygon", "coordinates": [ [ [ [ 7.87250140781379, 9.289969744707999 ], [ 7.80838730113311, 9.272846277933411 ], [ 7.79292964858445, 9.275596618789001 ], [ 7.76385784126643, 9.29585838315791 ], [ 7.73118892472917, 9.326137384632659 ], [ 7.6929700247469, 9.349402783012071 ], [ 7.67072320301344, 9.38392276512354 ], [ 7.66749075809207, 9.40136905793571 ], [ 7.64695523019975, 9.408684983425299 ], [ 7.61406035630046, 9.40605877059585 ], [ 7.54209411325274, 9.387351140842499 ], [ 7.5091009884199, 9.355031274573721 ], [ 7.38969069337082, 9.335894030585109 ], [ 7.33397856495884, 9.340772251937951 ], [ 7.27370298600403, 9.3293270883745 ], [ 7.23225743992896, 9.31771887502612 ], [ 7.22236416537396, 9.33232913418226 ], [ 7.22141344617364, 9.375293091103339 ], [ 7.20089664576363, 9.459821223670589 ], [ 7.21898227741025, 9.492680104003631 ], [ 7.25137295090099, 9.52103349599906 ], [ 7.233942260427, 9.564821187847601 ], [ 7.25887177061577, 9.58909519298879 ], [ 7.29613995229698, 9.613467633424589 ], [ 7.305647140703, 9.62771532280397 ], [ 7.27636499904554, 9.68994817366934 ], [ 7.25601961391408, 9.712626559368291 ], [ 7.20474004691567, 9.758296013350391 ], [ 7.21050405461847, 9.780071259381151 ], [ 7.25171995161452, 9.79437065078497 ], [ 7.27358961117164, 9.7834358219057 ], [ 7.28536558225585, 9.789323807447831 ], [ 7.29293584771125, 9.81119346700495 ], [ 7.2887301447804, 9.8406333929168 ], [ 7.29650020631954, 9.8698482508961 ], [ 7.29377698901686, 9.907925605682181 ], [ 7.28536558225585, 9.933159827763919 ], [ 7.27779531500181, 10.016432762162299 ], [ 7.25406694383446, 10.0392265326784 ], [ 7.21601581597719, 10.0374078750734 ], [ 7.17938184699472, 10.0273675919408 ], [ 7.13816595089799, 10.0357789987019 ], [ 7.10536146156227, 10.026526450635201 ], [ 7.06498670587183, 10.042508124650301 ], [ 6.95227336892088, 10.0475549697861 ], [ 6.91442203534871, 10.0778360370036 ], [ 6.90117883743346, 10.0763816830683 ], [ 6.88208818372277, 10.1171112069167 ], [ 6.88530111425507, 10.150844575416899 ], [ 6.92144441582718, 10.191003798686401 ], [ 6.94232702267402, 10.180562973702299 ], [ 6.95447254317338, 10.1919984830436 ], [ 6.9704389565926, 10.232769965661401 ], [ 7.00979471205636, 10.2504396437746 ], [ 7.01943302161669, 10.273732184592699 ], [ 7.04593849206782, 10.291402816886499 ], [ 7.05075740762828, 10.3171043401932 ], [ 7.03389072427757, 10.343609809745001 ], [ 7.02023649212049, 10.354051589809 ], [ 6.97721385983181, 10.364830016691901 ], [ 6.9342951765812, 10.3612794878582 ], [ 6.92305088019401, 10.382163048885699 ], [ 6.93831110007727, 10.4335670469817 ], [ 6.95437478956495, 10.462481499021999 ], [ 6.95351982118285, 10.4821786878962 ], [ 6.93590164184735, 10.500231743400301 ], [ 6.91260910012994, 10.5379810326986 ], [ 6.86910247789706, 10.5553569787416 ], [ 6.84433841688445, 10.528343200678201 ], [ 6.83550310118721, 10.5379810326986 ], [ 6.84192895865459, 10.5725183492425 ], [ 6.82947921819141, 10.5998268126573 ], [ 6.82947921819141, 10.6247253421009 ], [ 6.80297422258235, 10.643198967358501 ], [ 6.78530406962716, 10.639183043862401 ], [ 6.75989914902658, 10.645277941823601 ], [ 6.71978015513008, 10.6435033303145 ], [ 6.71416119997946, 10.6341153857165 ], [ 6.73132591775692, 10.596402150239101 ], [ 6.70984554323729, 10.5875358582933 ], [ 6.64706993083269, 10.5934295653223 ], [ 6.58691692407683, 10.5741243360693 ], [ 6.57406568488352, 10.5572576527185 ], [ 6.54033184064195, 10.545209884928299 ], [ 6.52159309434586, 10.572834969058601 ], [ 6.52426815025495, 10.5950069429161 ], [ 6.49454360780129, 10.6156928419512 ], [ 6.45989710636644, 10.5941879231342 ], [ 6.43558246985515, 10.5908236555873 ], [ 6.42442340581556, 10.577085856627001 ], [ 6.40242614774854, 10.574422335422501 ], [ 6.38294645181736, 10.540433602628701 ], [ 6.35533256604515, 10.511202500195299 ], [ 6.32708856668404, 10.495207666400701 ], [ 6.31542391638067, 10.480156502021 ], [ 6.32163017829015, 10.443505847916599 ], [ 6.28536035289801, 10.4141876137674 ], [ 6.25445398706188, 10.4274483061944 ], [ 6.23565112539916, 10.384797583141999 ], [ 6.21671325031627, 10.3893816371529 ], [ 6.20926199124796, 10.374886760115899 ], [ 6.17309901970407, 10.380901046446199 ], [ 6.16138598677389, 10.417576424712299 ], [ 6.17489622218295, 10.442200313793499 ], [ 6.15833177579088, 10.5008316631508 ], [ 6.09224300610987, 10.5217838388531 ], [ 6.09364019373999, 10.5461970914227 ], [ 6.12445574063997, 10.5541869949339 ], [ 6.13400521696724, 10.590127533558899 ], [ 6.11480069469633, 10.605303850292501 ], [ 6.13082030841053, 10.6459743444405 ], [ 6.13723062109631, 10.679239456635701 ], [ 6.09889763491799, 10.701660689289399 ], [ 6.11650494864449, 10.742855376674401 ], [ 6.10389366116357, 10.7695121625563 ], [ 6.11378747711041, 10.8143738023092 ], [ 6.13635516705739, 10.8253244448673 ], [ 6.12259963976163, 10.8448654781594 ], [ 6.16280535618228, 10.8561428390208 ], [ 6.15783258280749, 10.885116521310501 ], [ 6.16460702469448, 10.893103743043399 ], [ 6.20922894116273, 10.901772748913301 ], [ 6.23102927108403, 10.918600339634001 ], [ 6.23748349856464, 10.945327279830201 ], [ 6.25102061381034, 10.9483105082234 ], [ 6.26717714031281, 10.966682410265101 ], [ 6.27863968057687, 10.9634524942373 ], [ 6.30416757897063, 11.0030679918943 ], [ 6.33703472587194, 11.021489178582801 ], [ 6.36480465571032, 11.0176634329212 ], [ 6.3916111139618, 11.033845811335199 ], [ 6.41898314595545, 11.0277415874044 ], [ 6.43700600582258, 11.0076095952067 ], [ 6.51076929666579, 11.043658428393799 ], [ 6.5333741771766, 11.047941457732099 ], [ 6.55157705433766, 11.0417548585999 ], [ 6.57728936591155, 11.0215674483791 ], [ 6.60545416287937, 11.0464861226365 ], [ 6.65653178711233, 11.0519876452137 ], [ 6.68741851984885, 11.091662970269899 ], [ 6.70701496127151, 11.094253416162299 ], [ 6.71599999790163, 11.106221807090799 ], [ 6.69087542925769, 11.1208906822592 ], [ 6.68498395434608, 11.151544340399001 ], [ 6.68907662688486, 11.203616464628199 ], [ 6.70335339314465, 11.2390228437293 ], [ 6.73047924921804, 11.258153710625299 ], [ 6.76677354786102, 11.2721623116414 ], [ 6.77064321821001, 11.3201185869033 ], [ 6.787132883276, 11.319833053052999 ], [ 6.8294863731976, 11.307184244957 ], [ 6.83985700879396, 11.318864524578199 ], [ 6.83288240120191, 11.3519679917295 ], [ 6.84454175989435, 11.360355591637299 ], [ 6.87917450889654, 11.3673189550058 ], [ 6.88783793537249, 11.3823481777263 ], [ 6.91928806009594, 11.384913448896601 ], [ 6.96131215173449, 11.3587627708852 ], [ 7.00619316108555, 11.3617897027327 ], [ 7.01362848056999, 11.349229694594801 ], [ 7.00869989358529, 11.293840408408199 ], [ 6.97825384124184, 11.2636699676949 ], [ 6.96773385972989, 11.2451696397671 ], [ 7.02545017498562, 11.2095588339731 ], [ 7.07665540672167, 11.1953051856858 ], [ 7.09575385035993, 11.169523254894299 ], [ 7.11867883915716, 11.1560862926484 ], [ 7.12929246167784, 11.138164558847301 ], [ 7.16155418227976, 11.130866607208199 ], [ 7.20102474879315, 11.153385120427 ], [ 7.20007402959283, 11.1731590133778 ], [ 7.21136888316749, 11.2024396216912 ], [ 7.19478590804329, 11.2575612066844 ], [ 7.20995729919008, 11.2611072344114 ], [ 7.22739825542521, 11.2786349401504 ], [ 7.29756970977434, 11.273647057265901 ], [ 7.32019681882815, 11.2650690825722 ], [ 7.35778190810862, 11.264257115273701 ], [ 7.37011003505012, 11.3332004554367 ], [ 7.39231300404197, 11.3748302456194 ], [ 7.47250399596271, 11.3760157526249 ], [ 7.49635852222809, 11.3515690722549 ], [ 7.52029524742778, 11.3616008460023 ], [ 7.52172519736001, 11.340404114958 ], [ 7.55092843519918, 11.3313966789137 ], [ 7.57756133868486, 11.315480521409 ], [ 7.60750208175574, 11.271802082799899 ], [ 7.61866756155877, 11.277690311159001 ], [ 7.66883003837563, 11.2969097298002 ], [ 7.67604135382544, 11.3065378185655 ], [ 7.70617606267518, 11.3100415601699 ], [ 7.72107750612207, 11.324947028982301 ], [ 7.71326700207055, 11.3483916100848 ], [ 7.72099480716469, 11.370172679225799 ], [ 7.74158681877674, 11.368297199756 ], [ 7.76480423472771, 11.3792833115756 ], [ 7.78899654455495, 11.359880111977599 ], [ 7.80551980739324, 11.3716957008959 ], [ 7.82680442288586, 11.3695988029424 ], [ 7.87891825227558, 11.386228914233101 ], [ 7.90005941870726, 11.4313062060166 ], [ 7.91698417487981, 11.435576158313101 ], [ 7.94223764605056, 11.4629477946051 ], [ 7.95648530755096, 11.467413642625599 ], [ 7.96842311343596, 11.478677663843101 ], [ 8.00090000043474, 11.4921000004147 ], [ 8.0408363051514, 11.4869435881761 ], [ 8.0819157597046, 11.5055135317241 ], [ 8.08659329734286, 11.517386711427701 ], [ 8.15008142012147, 11.5191704375657 ], [ 8.16178865332375, 11.5055374752743 ], [ 8.153881293187171, 11.477422974690599 ], [ 8.140389536148231, 11.456754362423901 ], [ 8.143324521309641, 11.4202675746889 ], [ 8.11372187026814, 11.408484264237501 ], [ 8.12291375726414, 11.386672797111901 ], [ 8.14993198787101, 11.3753931133016 ], [ 8.167448604069881, 11.3543435104447 ], [ 8.206780772115, 11.318701683436 ], [ 8.248775529667, 11.325722682555799 ], [ 8.255680972199171, 11.315035737409399 ], [ 8.257274956673941, 11.279668045344099 ], [ 8.286115695782771, 11.2682405435663 ], [ 8.297907885240759, 11.2342239389836 ], [ 8.325179102333779, 11.227182161927299 ], [ 8.33617214342974, 11.2332795024471 ], [ 8.359306821752449, 11.226579517231 ], [ 8.433814344756231, 11.2265834023022 ], [ 8.46187243806264, 11.171766610141001 ], [ 8.483406220620621, 11.161623281789 ], [ 8.509004328187251, 11.1586151934365 ], [ 8.506047334816691, 11.1322356163806 ], [ 8.51963207725862, 11.114907427036201 ], [ 8.59463929057085, 11.0825156302922 ], [ 8.607312127652619, 11.0712412183076 ], [ 8.614759426106669, 11.017739975119801 ], [ 8.598995209961, 11.0020599373163 ], [ 8.5812797545571, 10.9420499803224 ], [ 8.571494101871339, 10.9219102863307 ], [ 8.58374100564293, 10.887981662423799 ], [ 8.585043322891069, 10.8614875558061 ], [ 8.56305436916386, 10.8164514340864 ], [ 8.562844576216261, 10.7783147618168 ], [ 8.572947187762569, 10.7736535963364 ], [ 8.57163702662751, 10.748272388160199 ], [ 8.5393789941453, 10.7334427591761 ], [ 8.501429727999611, 10.7257839779483 ], [ 8.48123426075256, 10.7158618963095 ], [ 8.50633035236393, 10.6504570826283 ], [ 8.543728701018781, 10.6317787959547 ], [ 8.59364653975604, 10.645065435621399 ], [ 8.6495617000125, 10.6240655086164 ], [ 8.666434260432821, 10.593302762712399 ], [ 8.711128244972601, 10.5433585117859 ], [ 8.74972743227522, 10.5650420377599 ], [ 8.760375485340431, 10.5818644079162 ], [ 8.78317676789356, 10.5969687051417 ], [ 8.793080213780909, 10.5654626084127 ], [ 8.773050030234741, 10.504462112036901 ], [ 8.77674933481399, 10.4794686042927 ], [ 8.75284608687747, 10.4545579807663 ], [ 8.749219530257159, 10.4406980008121 ], [ 8.782257012351289, 10.424160140178399 ], [ 8.793015741383391, 10.404235061299101 ], [ 8.81831842885248, 10.3804462475963 ], [ 8.805094778601189, 10.355613826417001 ], [ 8.799274878932581, 10.302921225734099 ], [ 8.76342326886879, 10.281369116791399 ], [ 8.73427706603383, 10.275103278393701 ], [ 8.728683999666879, 10.248280402118899 ], [ 8.686072779335349, 10.2112304121538 ], [ 8.67203065968727, 10.1462234594451 ], [ 8.67226833971216, 10.0817368463784 ], [ 8.679643830898099, 10.011051521210801 ], [ 8.63469241092605, 9.866834108307501 ], [ 8.64394792315818, 9.834731826712471 ], [ 8.64394792315818, 9.77536012217195 ], [ 8.63360885466494, 9.754630222007171 ], [ 8.598860068837149, 9.727923997694401 ], [ 8.59902645420755, 9.67872672815605 ], [ 8.581622627382391, 9.67581846814784 ], [ 8.56561637489585, 9.62431496006741 ], [ 8.565863609318169, 9.596553802216251 ], [ 8.55567634188969, 9.581567808107931 ], [ 8.556285858305779, 9.55365753276897 ], [ 8.57775093985401, 9.49924086787178 ], [ 8.602659774628931, 9.48254971239936 ], [ 8.617661476296121, 9.43476104738448 ], [ 8.64837455714013, 9.395584105921779 ], [ 8.66952514576889, 9.396523475677901 ], [ 8.695412636284169, 9.378367424417149 ], [ 8.690713881840219, 9.35499286812643 ], [ 8.69415092522507, 9.32232761362849 ], [ 8.6578073500292, 9.207689285931851 ], [ 8.649804974719871, 9.173118754726771 ], [ 8.62071514139069, 9.11488437691253 ], [ 8.593631555252101, 9.090566538814761 ], [ 8.56402301814779, 9.052246093682299 ], [ 8.564012388161251, 9.03267914912351 ], [ 8.53326129926961, 9.00437736472367 ], [ 8.50434589394791, 9.00143146538989 ], [ 8.49065780591309, 9.037734984781761 ], [ 8.476561546178459, 9.05535411829794 ], [ 8.473918915325729, 9.07297325091486 ], [ 8.44660854265015, 9.11261749270318 ], [ 8.39551258124067, 9.16195106528949 ], [ 8.387311935097779, 9.175717353872811 ], [ 8.34563750166939, 9.193908173823219 ], [ 8.328263858790081, 9.181125614955191 ], [ 8.300863142020431, 9.18850805430333 ], [ 8.25840775441441, 9.18289193831237 ], [ 8.25350201110899, 9.14724483588054 ], [ 8.232776338657169, 9.10481629483621 ], [ 8.191895424734129, 9.052430753276671 ], [ 8.13757126320326, 9.03615377068002 ], [ 8.09906714683143, 9.039674703724639 ], [ 8.061646934758301, 9.052055201786169 ], [ 8.07079760402627, 9.15464819166078 ], [ 8.087242992769969, 9.2307390655555 ], [ 8.060933895582879, 9.26576207805749 ], [ 7.94057187589141, 9.31417523589846 ], [ 7.91908663424084, 9.317365551179311 ], [ 7.87250140781379, 9.289969744707999 ] ] ] ] } }
]
}
